[{"OBJECT_NAME":"NOAA 9","OBJECT_ID":"1984-123A","EPOCH":"2026-03-05T01:10:53.310432","MEAN_MOTION":14.17037118,"ECCENTRICITY":0.00136903,"INCLINATION":99.1099,"RA_OF_ASC_NODE":88.2234,"ARG_OF_PERICENTER":285.7839,"MEAN_ANOMALY":99.2472,"EPHEMERIS_TYPE":0,"CLASSIFICATION_TYPE":"U","NORAD_CAT_ID":15427,"ELEMENT_SET_NO":999,"REV_AT_EPOCH":12867,"BSTAR":9.7894708e-5,"MEAN_MOTION_DOT":1.5e-6,"MEAN_MOTION_DDOT":0},{"OBJECT_NAME":"GEOSAT","OBJECT_ID":"1985-021A","EPOCH":"2026-03-05T05:18:07.860384","MEAN_MOTION":14.39908943,"ECCENTRICITY":0.00025066,"INCLINATION":108.048,"RA_OF_ASC_NODE":225.0481,"ARG_OF_PERICENTER":261.7641,"MEAN_ANOMALY":98.3217,"EPHEMERIS_TYPE":0,"CLASSIFICATION_TYPE":"U","NORAD_CAT_ID":15595,"ELEMENT_SET_NO":999,"REV_AT_EPOCH":14780,"BSTAR":0.00017050019,"MEAN_MOTION_DOT":4.01e-6,"MEAN_MOTION_DDOT":0},{"OBJECT_NAME":"EUTELSAT 1-F4 (ECS 4)","OBJECT_ID":"1987-078B","EPOCH":"2026-03-03T11:34:25.665600","MEAN_MOTION":0.98690192,"ECCENTRICITY":0.0011534,"INCLINATION":13.9034,"RA_OF_ASC_NODE":342.862,"ARG_OF_PERICENTER":24.9766,"MEAN_ANOMALY":160.8519,"EPHEMERIS_TYPE":0,"CLASSIFICATION_TYPE":"U","NORAD_CAT_ID":18351,"ELEMENT_SET_NO":999,"REV_AT_EPOCH":12571,"BSTAR":0,"MEAN_MOTION_DOT":-1.41e-6,"MEAN_MOTION_DDOT":0},{"OBJECT_NAME":"PACSAT (AO-16)","OBJECT_ID":"1990-005D","EPOCH":"2026-03-05T01:23:23.836128","MEAN_MOTION":14.33899731,"ECCENTRICITY":0.00107566,"INCLINATION":98.8656,"RA_OF_ASC_NODE":97.2344,"ARG_OF_PERICENTER":171.7107,"MEAN_ANOMALY":218.3868,"EPHEMERIS_TYPE":0,"CLASSIFICATION_TYPE":"U","NORAD_CAT_ID":20439,"ELEMENT_SET_NO":999,"REV_AT_EPOCH":88701,"BSTAR":8.3300769e-5,"MEAN_MOTION_DOT":1.86e-6,"MEAN_MOTION_DDOT":0},{"OBJECT_NAME":"LUSAT (LO-19)","OBJECT_ID":"1990-005G","EPOCH":"2026-03-05T07:05:07.807200","MEAN_MOTION":14.34085945,"ECCENTRICITY":0.00121799,"INCLINATION":98.8937,"RA_OF_ASC_NODE":83.1977,"ARG_OF_PERICENTER":146.7228,"MEAN_ANOMALY":213.4724,"EPHEMERIS_TYPE":0,"CLASSIFICATION_TYPE":"U","NORAD_CAT_ID":20442,"ELEMENT_SET_NO":999,"REV_AT_EPOCH":88750,"BSTAR":9.4242039e-5,"MEAN_MOTION_DOT":2.17e-6,"MEAN_MOTION_DDOT":0},{"OBJECT_NAME":"IRS-1B","OBJECT_ID":"1991-061A","EPOCH":"2026-03-05T06:02:36.904992","MEAN_MOTION":13.97859713,"ECCENTRICITY":0.00236508,"INCLINATION":99.4143,"RA_OF_ASC_NODE":69.5977,"ARG_OF_PERICENTER":286.3996,"MEAN_ANOMALY":84.144,"EPHEMERIS_TYPE":0,"CLASSIFICATION_TYPE":"U","NORAD_CAT_ID":21688,"ELEMENT_SET_NO":999,"REV_AT_EPOCH":65397,"BSTAR":-5.288798e-5,"MEAN_MOTION_DOT":-1.22e-6,"MEAN_MOTION_DDOT":0},{"OBJECT_NAME":"COSMOS 2197","OBJECT_ID":"1992-042A","EPOCH":"2026-03-05T04:13:28.440768","MEAN_MOTION":12.64248119,"ECCENTRICITY":0.0013001,"INCLINATION":82.5929,"RA_OF_ASC_NODE":295.4163,"ARG_OF_PERICENTER":147.4326,"MEAN_ANOMALY":334.9894,"EPHEMERIS_TYPE":0,"CLASSIFICATION_TYPE":"U","NORAD_CAT_ID":22034,"ELEMENT_SET_NO":999,"REV_AT_EPOCH":55214,"BSTAR":0.00022482908,"MEAN_MOTION_DOT":5.2e-7,"MEAN_MOTION_DDOT":0},{"OBJECT_NAME":"PEGASUS R/B","OBJECT_ID":"1993-009C","EPOCH":"2026-03-05T06:46:11.159040","MEAN_MOTION":14.578139,"ECCENTRICITY":0.00442963,"INCLINATION":24.9789,"RA_OF_ASC_NODE":23.8115,"ARG_OF_PERICENTER":66.6159,"MEAN_ANOMALY":293.9004,"EPHEMERIS_TYPE":0,"CLASSIFICATION_TYPE":"U","NORAD_CAT_ID":22491,"ELEMENT_SET_NO":999,"REV_AT_EPOCH":75445,"BSTAR":0.00030945295,"MEAN_MOTION_DOT":1.665e-5,"MEAN_MOTION_DDOT":0},{"OBJECT_NAME":"EYESAT A (AO-27)","OBJECT_ID":"1993-061C","EPOCH":"2026-03-05T03:53:06.927072","MEAN_MOTION":14.30911277,"ECCENTRICITY":0.00091456,"INCLINATION":98.6991,"RA_OF_ASC_NODE":131.5684,"ARG_OF_PERICENTER":51.1791,"MEAN_ANOMALY":309.0206,"EPHEMERIS_TYPE":0,"CLASSIFICATION_TYPE":"U","NORAD_CAT_ID":22825,"ELEMENT_SET_NO":999,"REV_AT_EPOCH":69212,"BSTAR":7.4702114e-5,"MEAN_MOTION_DOT":1.52e-6,"MEAN_MOTION_DDOT":0},{"OBJECT_NAME":"ITAMSAT (IO-26)","OBJECT_ID":"1993-061D","EPOCH":"2026-03-05T04:07:56.872128","MEAN_MOTION":14.31335176,"ECCENTRICITY":0.00094397,"INCLINATION":98.6939,"RA_OF_ASC_NODE":131.4858,"ARG_OF_PERICENTER":35.6558,"MEAN_ANOMALY":324.5254,"EPHEMERIS_TYPE":0,"CLASSIFICATION_TYPE":"U","NORAD_CAT_ID":22826,"ELEMENT_SET_NO":999,"REV_AT_EPOCH":69243,"BSTAR":8.1297494e-5,"MEAN_MOTION_DOT":1.71e-6,"MEAN_MOTION_DDOT":0},{"OBJECT_NAME":"RADIO ROSTO (RS15)","OBJECT_ID":"1994-085A","EPOCH":"2026-03-05T04:08:14.268768","MEAN_MOTION":11.2758389,"ECCENTRICITY":0.01525057,"INCLINATION":64.8145,"RA_OF_ASC_NODE":111.4397,"ARG_OF_PERICENTER":22.8797,"MEAN_ANOMALY":337.8829,"EPHEMERIS_TYPE":0,"CLASSIFICATION_TYPE":"U","NORAD_CAT_ID":23439,"ELEMENT_SET_NO":999,"REV_AT_EPOCH":28417,"BSTAR":0.00088804285,"MEAN_MOTION_DOT":-1.1e-7,"MEAN_MOTION_DDOT":0},{"OBJECT_NAME":"JAS-2 (FO-29)","OBJECT_ID":"1996-046B","EPOCH":"2026-03-05T05:03:32.490144","MEAN_MOTION":13.53268489,"ECCENTRICITY":0.0350016,"INCLINATION":98.5387,"RA_OF_ASC_NODE":287.2361,"ARG_OF_PERICENTER":6.3853,"MEAN_ANOMALY":354.158,"EPHEMERIS_TYPE":0,"CLASSIFICATION_TYPE":"U","NORAD_CAT_ID":24278,"ELEMENT_SET_NO":999,"REV_AT_EPOCH":45910,"BSTAR":2.0117002e-5,"MEAN_MOTION_DOT":-1.6e-7,"MEAN_MOTION_DDOT":0},{"OBJECT_NAME":"FORTE","OBJECT_ID":"1997-047A","EPOCH":"2026-03-04T18:57:23.448672","MEAN_MOTION":14.2789555,"ECCENTRICITY":0.00194608,"INCLINATION":69.9512,"RA_OF_ASC_NODE":249.8158,"ARG_OF_PERICENTER":56.9864,"MEAN_ANOMALY":303.3125,"EPHEMERIS_TYPE":0,"CLASSIFICATION_TYPE":"U","NORAD_CAT_ID":24920,"ELEMENT_SET_NO":999,"REV_AT_EPOCH":48378,"BSTAR":0.00013808949,"MEAN_MOTION_DOT":2.85e-6,"MEAN_MOTION_DDOT":0},{"OBJECT_NAME":"NOAA 15","OBJECT_ID":"1998-030A","EPOCH":"2026-03-05T06:45:35.717760","MEAN_MOTION":14.2711056,"ECCENTRICITY":0.00091461,"INCLINATION":98.5167,"RA_OF_ASC_NODE":87.678,"ARG_OF_PERICENTER":294.6846,"MEAN_ANOMALY":65.3382,"EPHEMERIS_TYPE":0,"CLASSIFICATION_TYPE":"U","NORAD_CAT_ID":25338,"ELEMENT_SET_NO":999,"REV_AT_EPOCH":44647,"BSTAR":0.00010294401,"MEAN_MOTION_DOT":2.08e-6,"MEAN_MOTION_DDOT":0},{"OBJECT_NAME":"TECHSAT 1B (GO-32)","OBJECT_ID":"1998-043D","EPOCH":"2026-03-05T05:52:00.839424","MEAN_MOTION":14.2440467,"ECCENTRICITY":0.00019372,"INCLINATION":99.0023,"RA_OF_ASC_NODE":54.4082,"ARG_OF_PERICENTER":126.5431,"MEAN_ANOMALY":233.5926,"EPHEMERIS_TYPE":0,"CLASSIFICATION_TYPE":"U","NORAD_CAT_ID":25397,"ELEMENT_SET_NO":999,"REV_AT_EPOCH":43653,"BSTAR":7.4197624e-5,"MEAN_MOTION_DOT":1.25e-6,"MEAN_MOTION_DDOT":0},{"OBJECT_NAME":"ISS (ZARYA)","OBJECT_ID":"1998-067A","EPOCH":"2026-03-05T06:05:40.876512","MEAN_MOTION":15.48454548,"ECCENTRICITY":0.00081607,"INCLINATION":51.6314,"RA_OF_ASC_NODE":94.2866,"ARG_OF_PERICENTER":158.8383,"MEAN_ANOMALY":201.2944,"EPHEMERIS_TYPE":0,"CLASSIFICATION_TYPE":"U","NORAD_CAT_ID":25544,"ELEMENT_SET_NO":999,"REV_AT_EPOCH":55564,"BSTAR":0.00016717327,"MEAN_MOTION_DOT":8.604e-5,"MEAN_MOTION_DDOT":0},{"OBJECT_NAME":"ORSTED","OBJECT_ID":"1999-008B","EPOCH":"2026-03-05T05:49:28.090272","MEAN_MOTION":14.51674295,"ECCENTRICITY":0.01327182,"INCLINATION":96.481,"RA_OF_ASC_NODE":355.3768,"ARG_OF_PERICENTER":159.3448,"MEAN_ANOMALY":201.3189,"EPHEMERIS_TYPE":0,"CLASSIFICATION_TYPE":"U","NORAD_CAT_ID":25635,"ELEMENT_SET_NO":999,"REV_AT_EPOCH":42688,"BSTAR":0.0001796943,"MEAN_MOTION_DOT":7.77e-6,"MEAN_MOTION_DDOT":0},{"OBJECT_NAME":"LANDSAT 7","OBJECT_ID":"1999-020A","EPOCH":"2026-03-05T06:27:08.074944","MEAN_MOTION":14.63814988,"ECCENTRICITY":0.00017425,"INCLINATION":97.8607,"RA_OF_ASC_NODE":72.6652,"ARG_OF_PERICENTER":84.9167,"MEAN_ANOMALY":285.6252,"EPHEMERIS_TYPE":0,"CLASSIFICATION_TYPE":"U","NORAD_CAT_ID":25682,"ELEMENT_SET_NO":999,"REV_AT_EPOCH":43064,"BSTAR":0.00015095217,"MEAN_MOTION_DOT":7.43e-6,"MEAN_MOTION_DDOT":0},{"OBJECT_NAME":"ORBCOMM FM36","OBJECT_ID":"1999-065E","EPOCH":"2026-03-04T23:27:15.079968","MEAN_MOTION":14.38967858,"ECCENTRICITY":0.00023802,"INCLINATION":45.039,"RA_OF_ASC_NODE":294.2219,"ARG_OF_PERICENTER":162.0795,"MEAN_ANOMALY":198.0139,"EPHEMERIS_TYPE":0,"CLASSIFICATION_TYPE":"U","NORAD_CAT_ID":25984,"ELEMENT_SET_NO":999,"REV_AT_EPOCH":37197,"BSTAR":0.00048926253,"MEAN_MOTION_DOT":1.38e-5,"MEAN_MOTION_DDOT":0},{"OBJECT_NAME":"DMSP 5D-3 F15 (USA 147)","OBJECT_ID":"1999-067A","EPOCH":"2026-03-05T06:05:41.392320","MEAN_MOTION":14.17518342,"ECCENTRICITY":0.00090226,"INCLINATION":99.0105,"RA_OF_ASC_NODE":101.4485,"ARG_OF_PERICENTER":301.4472,"MEAN_ANOMALY":121.3737,"EPHEMERIS_TYPE":0,"CLASSIFICATION_TYPE":"U","NORAD_CAT_ID":25991,"ELEMENT_SET_NO":999,"REV_AT_EPOCH":35592,"BSTAR":0.00012653496,"MEAN_MOTION_DOT":2.11e-6,"MEAN_MOTION_DDOT":0},{"OBJECT_NAME":"OPAL (OO-38)","OBJECT_ID":"2000-004C","EPOCH":"2026-03-05T05:19:59.094336","MEAN_MOTION":14.37922162,"ECCENTRICITY":0.00355126,"INCLINATION":100.189,"RA_OF_ASC_NODE":341.9008,"ARG_OF_PERICENTER":330.0562,"MEAN_ANOMALY":29.8588,"EPHEMERIS_TYPE":0,"CLASSIFICATION_TYPE":"U","NORAD_CAT_ID":26063,"ELEMENT_SET_NO":999,"REV_AT_EPOCH":36834,"BSTAR":0.00011345247,"MEAN_MOTION_DOT":2.86e-6,"MEAN_MOTION_DDOT":0},{"OBJECT_NAME":"IMAGE","OBJECT_ID":"2000-017A","EPOCH":"2026-03-03T03:29:03.609888","MEAN_MOTION":1.68665517,"ECCENTRICITY":0.75123448,"INCLINATION":94.1357,"RA_OF_ASC_NODE":313.9399,"ARG_OF_PERICENTER":299.9178,"MEAN_ANOMALY":6.8844,"EPHEMERIS_TYPE":0,"CLASSIFICATION_TYPE":"U","NORAD_CAT_ID":26113,"ELEMENT_SET_NO":999,"REV_AT_EPOCH":15971,"BSTAR":0.0030214692,"MEAN_MOTION_DOT":7.0e-7,"MEAN_MOTION_DDOT":0},{"OBJECT_NAME":"CLUSTER II-FM7 (SAMBA)","OBJECT_ID":"2000-041A","EPOCH":"2026-03-04T06:04:28.507872","MEAN_MOTION":0.44785609,"ECCENTRICITY":0.89087774,"INCLINATION":148.992,"RA_OF_ASC_NODE":34.5676,"ARG_OF_PERICENTER":250.6745,"MEAN_ANOMALY":359.7226,"EPHEMERIS_TYPE":0,"CLASSIFICATION_TYPE":"U","NORAD_CAT_ID":26410,"ELEMENT_SET_NO":999,"REV_AT_EPOCH":1983,"BSTAR":0,"MEAN_MOTION_DOT":3.639e-5,"MEAN_MOTION_DDOT":0}]
